NORAD_CAT_ID,OBJECT_NAME,OBJECT_TYPE,EPOCH,MEAN_MOTION,ECCENTRICITY,INCLINATION,RA_OF_ASC_NODE,ARG_OF_PERICENTER,MEAN_ANOMALY,BSTAR,MEAN_MOTION_DOT,MEAN_MOTION_DDOT,TLE_LINE0,TLE_LINE1,TLE_LINE2,SEMIMAJOR_AXIS,PERIOD,APOGEE,PERIGEE,DECAYED
54078.0,STARLINK-5138,PAYLOAD,2024-03-12 18:15:25,15.08835262,0.0001427,53.2203,347.383,135.3018,224.8089,7.0974e-05,8.42e-06,0.0,0 STARLINK-5138,1 54078U 22136AD  24072.76071535  .00000842  00000-0  70974-4 0  9992,2 54078  53.2203 347.3830 0001427 135.3018 224.8089 15.08835262 77382,6917.895,95.438,540.747,538.773,0.0
54078.0,STARLINK-5138,PAYLOAD,2024-03-13 03:47:44,15.08841492,0.0001594,53.2173,345.6021,87.5144,272.603,0.00017387,2.48e-05,0.0,0 STARLINK-5138,1 54078U 22136AD  24073.15815706  .00002480  00000-0  17387-3 0  9990,2 54078  53.2173 345.6021 0001594  87.5144 272.6030 15.08841492 77923,6917.876,95.437,540.844,538.638,0.0
54078.0,STARLINK-5138,PAYLOAD,2024-03-13 11:44:40,15.08840462,0.0001574,53.217,344.115,86.8304,273.2868,0.00012434,1.691e-05,0.0,0 STARLINK-5138,1 54078U 22136AD  24073.48935834  .00001691  00000-0  12434-3 0  9992,2 54078  53.2170 344.1150 0001574  86.8304 273.2868 15.08840462 77499,6917.879,95.438,540.833,538.655,0.0
54078.0,STARLINK-5138,PAYLOAD,2024-03-13 22:52:22,15.08842238,0.0001551,53.2176,342.033,87.4093,272.7077,0.00011075,1.475e-05,0.0,0 STARLINK-5138,1 54078U 22136AD  24073.95303758  .00001475  00000-0  11075-3 0  9998,2 54078  53.2176 342.0330 0001551  87.4093 272.7077 15.08842238 77566,6917.874,95.437,540.812,538.666,0.0
54078.0,STARLINK-5138,PAYLOAD,2024-03-14 03:38:31,15.08848403,0.0001445,53.2178,341.1389,99.5936,260.522,0.00012554,1.711e-05,0.0,0 STARLINK-5138,1 54078U 22136AD  24074.15175217  .00001711  00000-0  12554-3 0  9994,2 54078  53.2178 341.1389 0001445  99.5936 260.5220 15.08848403 77592,6917.855,95.437,540.719,538.72,0.0
54078.0,STARLINK-5138,PAYLOAD,2024-03-14 21:07:46,15.08837178,0.0001862,53.2169,337.8656,118.2884,241.8297,0.00010016,1.306e-05,0.0,0 STARLINK-5138,1 54078U 22136AD  24074.88039877  .00001306  00000-0  10016-3 0  9996,2 54078  53.2169 337.8656 0001862 118.2884 241.8297 15.08837178 78184,6917.889,95.438,541.042,538.466,0.0
54078.0,STARLINK-5138,PAYLOAD,2024-03-15 22:33:56,15.08839275,0.0001668,53.2188,333.1079,107.9923,252.1251,1.7479e-06,-2.6e-06,0.0,0 STARLINK-5138,1 54078U 22136AD  24075.94024261 -.00000260  00000-0  17479-5 0  9996,2 54078  53.2188 333.1079 0001668 107.9923 252.1251 15.08839275 77865,6917.883,95.438,540.902,538.594,0.0
54078.0,STARLINK-5138,PAYLOAD,2024-03-16 03:20:06,15.08840286,0.000155,53.219,332.218,102.6537,257.4628,-3.62e-05,-8.64e-06,0.0,0 STARLINK-5138,1 54078U 22136AD  24076.13896308 -.00000864  00000-0 -36200-4 0  9990,2 54078  53.2190 332.2180 0001550 102.6537 257.4628 15.08840286 78371,6917.88,95.438,540.817,538.672,0.0
54078.0,STARLINK-5138,PAYLOAD,2024-03-16 20:49:19,15.08852701,0.0001345,53.2181,328.9516,72.9342,287.1797,0.0001591,2.246e-05,0.0,0 STARLINK-5138,1 54078U 22136AD  24076.86758918  .00002246  00000-0  15910-3 0  9992,2 54078  53.2181 328.9516 0001345  72.9342 287.1797 15.08852701 78485,6917.842,95.437,540.637,538.776,0.0
54078.0,STARLINK-5138,PAYLOAD,2024-03-16 22:24:42,15.08843259,0.0001267,53.2181,328.6513,95.2416,264.872,0.00043521,6.646e-05,0.0,0 STARLINK-5138,1 54078U 22136AD  24076.93382756  .00006646  00000-0  43521-3 0  9990,2 54078  53.2181 328.6513 0001267  95.2416 264.8720 15.08843259 78017,6917.87,95.437,540.612,538.859,0.0
54078.0,STARLINK-5138,PAYLOAD,2024-03-17 20:40:07,15.08837163,0.0001581,53.2176,324.4892,126.9531,233.1606,4.2356e-05,3.86e-06,0.0,0 STARLINK-5138,1 54078U 22136AD  24077.86120126  .00000386  00000-0  42356-4 0  9995,2 54078  53.2176 324.4892 0001581 126.9531 233.1606 15.08837163 78631,6917.889,95.438,540.848,538.66,0.0
54078.0,STARLINK-5138,PAYLOAD,2024-03-17 22:15:30,15.08838994,0.0001913,53.2166,324.195,147.365,212.746,1.0975e-05,-1.13e-06,0.0,0 STARLINK-5138,1 54078U 22136AD  24077.92743905 -.00000113  00000-0  10975-4 0  9999,2 54078  53.2166 324.1950 0001913 147.3650 212.7460 15.08838994 78162,6917.883,95.438,541.072,538.425,0.0
54078.0,STARLINK-5138,PAYLOAD,2024-03-18 01:26:17,15.08836872,0.0001323,53.2176,323.5975,103.6457,256.4682,3.9888e-05,3.47e-06,0.0,0 STARLINK-5138,1 54078U 22136AD  24078.05992325  .00000347  00000-0  39888-4 0  9998,2 54078  53.2176 323.5975 0001323 103.6457 256.4682 15.08836872 78184,6917.89,95.438,540.67,538.84,0.0
54078.0,STARLINK-5138,PAYLOAD,2024-03-18 22:06:17,15.08844917,0.0001519,53.2185,319.7364,105.7099,254.4061,-7.1192e-05,-1.421e-05,0.0,0 STARLINK-5138,1 54078U 22136AD  24078.92104090 -.00001421  00000-0 -71192-4 0  9998,2 54078  53.2185 319.7364 0001519 105.7099 254.4061 15.08844917 78318,6917.865,95.437,540.781,538.68,0.0
54078.0,STARLINK-5138,PAYLOAD,2024-03-18 23:41:42,15.08798175,0.0001893,53.2183,319.4393,103.4875,256.6328,0.00068928,0.00010686,0.0,0 STARLINK-5138,1 54078U 22136AD  24078.98729275  .00010686  00000-0  68928-3 0  9995,2 54078  53.2183 319.4393 0001893 103.4875 256.6328 15.08798175 78805,6918.008,95.44,541.183,538.564,0.0
54078.0,STARLINK-5138,PAYLOAD,2024-03-19 21:57:04,15.08847207,0.0001507,53.2178,315.2764,92.3474,267.7691,0.00029746,4.45e-05,0.0,0 STARLINK-5138,1 54078U 22136AD  24079.91463905  .00004450  00000-0  29746-3 0  9991,2 54078  53.2178 315.2764 0001507  92.3474 267.7691 15.08847207 78940,6917.858,95.437,540.766,538.681,0.0
54078.0,STARLINK-5138,PAYLOAD,2024-03-20 20:12:29,15.08838064,0.000149,53.2174,311.1124,94.3322,265.784,7.6988e-05,9.37e-06,0.0,0 STARLINK-5138,1 54078U 22136AD  24080.84200751  .00000937  00000-0  76988-4 0  9990,2 54078  53.2174 311.1124 0001490  94.3322 265.7840 15.08838064 79087,6917.886,95.438,540.782,538.721,0.0
54078.0,STARLINK-5138,PAYLOAD,2024-03-20 21:47:52,15.08838674,0.0001421,53.2177,310.8173,95.2094,264.906,7.7979e-05,9.53e-06,0.0,0 STARLINK-5138,1 54078U 22136AD  24080.90824757  .00000953  00000-0  77979-4 0  9994,2 54078  53.2177 310.8173 0001421  95.2094 264.9060 15.08838674 78610,6917.884,95.438,540.732,538.766,0.0
54078.0,STARLINK-5138,PAYLOAD,2024-03-21 00:58:38,15.08837686,0.0001279,53.2171,310.2154,105.2733,254.8401,9.4351e-05,1.214e-05,0.0,0 STARLINK-5138,1 54078U 22136AD  24081.04072605  .00001214  00000-0  94351-4 0  9991,2 54078  53.2171 310.2154 0001279 105.2733 254.8401 15.08837686 78631,6917.887,95.438,540.637,538.868,0.0
54078.0,STARLINK-5138,PAYLOAD,2024-03-21 21:38:39,15.08848237,0.0001332,53.2167,306.35,97.2661,262.8482,0.00030052,4.499e-05,0.0,0 STARLINK-5138,1 54078U 22136AD  24081.90184500  .00004499  00000-0  30052-3 0  9999,2 54078  53.2167 306.3500 0001332  97.2661 262.8482 15.08848237 79247,6917.855,95.437,540.642,538.799,0.0
54078.0,STARLINK-5138,PAYLOAD,2024-03-22 15:07:53,15.08864045,0.0001307,53.2172,303.076,92.8535,267.2607,0.00057764,8.923e-05,0.0,0 STARLINK-5138,1 54078U 22136AD  24082.63047467  .00008923  00000-0  57764-3 0  9995,2 54078  53.2172 303.0760 0001307  92.8535 267.2607 15.08864045 78879,6917.807,95.436,540.576,538.768,0.0
54078.0,STARLINK-5138,PAYLOAD,2024-03-22 19:54:01,15.08887195,0.0001189,53.2171,302.1847,96.1392,263.9736,0.00099262,0.00015565,0.0,0 STARLINK-5138,1 54078U 22136AD  24082.82918564  .00015565  00000-0  99262-3 0  9990,2 54078  53.2171 302.1847 0001189  96.1392 263.9736 15.08887195 79384,6917.736,95.435,540.424,538.779,0.0
54078.0,STARLINK-5138,PAYLOAD,2024-03-23 00:40:12,15.08824108,0.0001501,53.217,301.293,79.7107,280.4054,-0.0008186,-0.00013287,0.0,0 STARLINK-5138,1 54078U 22136AD  24083.02792214 -.00013287  00000-0 -81860-3 0  9991,2 54078  53.2170 301.2930 0001501  79.7107 280.4054 15.08824108 79411,6917.929,95.439,540.832,538.756,0.0
54078.0,STARLINK-5138,PAYLOAD,2024-03-23 21:20:13,15.08843863,0.0001555,53.2167,297.431,73.2286,286.8876,0.0017319,0.00027386,0.0,0 STARLINK-5138,1 54078U 22136AD  24083.88904451  .00027386  00000-0  17319-2 0  9993,2 54078  53.2167 297.4310 0001555  73.2286 286.8876 15.08843863 79546,6917.869,95.437,540.809,538.658,0.0
54078.0,STARLINK-5138,PAYLOAD,2024-03-24 13:14:05,15.08842496,0.0002533,53.2154,294.4555,87.1781,272.9501,0.0015962,0.00025209,0.0,0 STARLINK-5138,1 54078U 22136AD  24084.55145269  .00025209  00000-0  15962-2 0  9996,2 54078  53.2154 294.4555 0002533  87.1781 272.9501 15.08842496 79644,6917.873,95.437,541.49,537.985,0.0
54078.0,STARLINK-5138,PAYLOAD,2024-03-24 22:46:24,15.08871642,0.0001488,53.2158,292.6739,101.6687,258.4472,0.0040717,0.00065169,0.0,0 STARLINK-5138,1 54078U 22136AD  24084.94889059  .00065169  00000-0  40717-2 0  9996,2 54078  53.2158 292.6739 0001488 101.6687 258.4472 15.08871642 79222,6917.784,95.436,540.678,538.619,0.0
54078.0,STARLINK-5138,PAYLOAD,2024-03-25 13:04:52,15.08865471,0.0002122,53.2143,289.9971,87.2983,272.8252,0.0017199,0.0002721,0.0,0 STARLINK-5138,1 54078U 22136AD  24085.54504949  .00027210  00000-0  17199-2 0  9998,2 54078  53.2143 289.9971 0002122  87.2983 272.8252 15.08865471 79798,6917.803,95.436,541.135,538.2,0.0
54078.0,STARLINK-5138,PAYLOAD,2024-03-25 21:01:47,15.08857604,0.0001253,53.2149,288.5092,91.3783,268.7353,0.0018831,0.00029823,0.0,0 STARLINK-5138,1 54078U 22136AD  24085.87624824  .00029823  00000-0  18831-2 0  9995,2 54078  53.2149 288.5092 0001253  91.3783 268.7353 15.08857604 79842,6917.827,95.436,540.558,538.825,0.0
54078.0,STARLINK-5138,PAYLOAD,2024-03-26 12:55:39,15.08833966,0.0001422,53.2151,285.536,99.4952,260.6201,0.00023627,3.474e-05,0.0,0 STARLINK-5138,1 54078U 22136AD  24086.53865310  .00003474  00000-0  23627-3 0  9990,2 54078  53.2151 285.5360 0001422  99.4952 260.6201 15.08833966 79944,6917.899,95.438,540.748,538.78,0.0
54078.0,STARLINK-5138,PAYLOAD,2024-03-26 22:27:58,15.08835007,0.0001309,53.2149,283.7514,98.5367,261.5773,0.0015563,0.00024564,0.0,0 STARLINK-5138,1 54078U 22136AD  24086.93609703  .00024564  00000-0  15563-2 0  9998,2 54078  53.2149 283.7514 0001309  98.5367 261.5773 15.08835007 79522,6917.896,95.438,540.666,538.855,0.0
